SL-14 R/B               
1 21423U 91042B   25352.92722301  .00000354  00000+0  41832-4 0  9994
2 21423  82.4932 295.9209 0017971 142.1929 218.0552 14.81744369841116
ERS-1                   
1 21574U 91050A   25352.64567411  .00000247  00000+0  93777-4 0  9994
2 21574  98.7901   3.8481 0033022  83.0408 277.4533 14.39369173804078
ARIANE 40 R/B           
1 21610U 91050F   25352.75053141  .00000265  00000+0  92035-4 0  9993
2 21610  98.2158  42.9641 0002424 340.0727  20.0368 14.42818153807322
INTERCOSMOS 25          
1 21819U 91086A   25352.90998725  .00002049  00000+0  40811-3 0  9992
2 21819  82.6066 358.8438 1486377 291.0947  53.7769 12.11750206486907
SL-8 R/B                
1 21876U 92008B   25352.93246499  .00000117  00000+0  10467-3 0  9995
2 21876  82.9267 327.8399 0034810   2.7052  55.5405 13.75960378698313
SL-8 R/B                
1 21938U 92020B   25352.73474792  .00000124  00000+0  11242-3 0  9995
2 21938  82.9299 213.8659 0029296 161.4732 268.5028 13.75528517690000
USA 81                  
1 21949U 92023A   25352.90224463  .00000170  00000+0  55515-4 0  9990
2 21949  85.0079 178.0219 0001174  74.0591 286.0731 14.32329086 83223
COSMOS 2219             
1 22219U 92076A   25352.94968669  .00000164  00000+0  11107-3 0  9997
2 22219  71.0572 186.8510 0019188 318.4515  41.5148 14.14063894706964
SL-16 R/B               
1 22220U 92076B   25352.45361450  .00000239  00000+0  14296-3 0  9995
2 22220  71.0005 359.4954 0014476 226.2904 285.4957 14.16842364710321
COSMOS 2221             
1 22236U 92080A   25352.97236462  .00001576  00000+0  13870-3 0  9990
2 22236  82.5038 356.3594 0016254 102.4729 257.8313 14.95783149768721
SL-16 R/B               
1 22285U 92093B   25352.89246761  .00000221  00000+0  13780-3 0  9998
2 22285  71.0203 173.8801 0002315  50.0783 310.0543 14.15433832701723
COSMOS 2228             
1 22286U 92094A   25352.90768299  .00001881  00000+0  16182-3 0  9999
2 22286  82.5180 314.6324 0016958 209.2066 150.8210 14.96756972763978
