CCSDS_OMM_VERS = 2.0
CREATION_DATE  = 
ORIGINATOR     = 

OBJECT_NAME    = SL-14 R/B
OBJECT_ID      = 1991-042B
CENTER_NAME    = EARTH
REF_FRAME      = TEME
TIME_SYSTEM    = UTC
MEAN_ELEMENT_THEORY = SGP/SGP4

EPOCH          = 2025-12-18T22:15:12.068064
MEAN_MOTION    = 14.81744369
ECCENTRICITY   = .00179713
INCLINATION    = 82.4932
RA_OF_ASC_NODE = 295.9209
ARG_OF_PERICENTER = 142.1929
MEAN_ANOMALY   = 218.0552

EPHEMERIS_TYPE = 0
CLASSIFICATION_TYPE = U
NORAD_CAT_ID   = 21423
ELEMENT_SET_NO = 999
REV_AT_EPOCH   = 84111
BSTAR          = .41832043E-4
MEAN_MOTION_DOT = .354E-5
MEAN_MOTION_DDOT = 0

CCSDS_OMM_VERS = 2.0
CREATION_DATE  = 
ORIGINATOR     = 

OBJECT_NAME    = ERS-1
OBJECT_ID      = 1991-050A
CENTER_NAME    = EARTH
REF_FRAME      = TEME
TIME_SYSTEM    = UTC
MEAN_ELEMENT_THEORY = SGP/SGP4

EPOCH          = 2025-12-18T15:29:46.243104
MEAN_MOTION    = 14.39369173
ECCENTRICITY   = .00330224
INCLINATION    = 98.7901
RA_OF_ASC_NODE = 3.8481
ARG_OF_PERICENTER = 83.0408
MEAN_ANOMALY   = 277.4533

EPHEMERIS_TYPE = 0
CLASSIFICATION_TYPE = U
NORAD_CAT_ID   = 21574
ELEMENT_SET_NO = 999
REV_AT_EPOCH   = 80407
BSTAR          = .93777152E-4
MEAN_MOTION_DOT = .247E-5
MEAN_MOTION_DDOT = 0

CCSDS_OMM_VERS = 2.0
CREATION_DATE  = 
ORIGINATOR     = 

OBJECT_NAME    = ARIANE 40 R/B
OBJECT_ID      = 1991-050F
CENTER_NAME    = EARTH
REF_FRAME      = TEME
TIME_SYSTEM    = UTC
MEAN_ELEMENT_THEORY = SGP/SGP4

EPOCH          = 2025-12-18T18:00:45.913824
MEAN_MOTION    = 14.42818153
ECCENTRICITY   = .00024243
INCLINATION    = 98.2158
RA_OF_ASC_NODE = 42.9641
ARG_OF_PERICENTER = 340.0727
MEAN_ANOMALY   = 20.0368

EPHEMERIS_TYPE = 0
CLASSIFICATION_TYPE = U
NORAD_CAT_ID   = 21610
ELEMENT_SET_NO = 999
REV_AT_EPOCH   = 80732
BSTAR          = .92035002E-4
MEAN_MOTION_DOT = .265E-5
MEAN_MOTION_DDOT = 0

CCSDS_OMM_VERS = 2.0
CREATION_DATE  = 
ORIGINATOR     = 

OBJECT_NAME    = INTERCOSMOS 25
OBJECT_ID      = 1991-086A
CENTER_NAME    = EARTH
REF_FRAME      = TEME
TIME_SYSTEM    = UTC
MEAN_ELEMENT_THEORY = SGP/SGP4

EPOCH          = 2025-12-18T21:50:22.898400
MEAN_MOTION    = 12.11750206
ECCENTRICITY   = .14863779
INCLINATION    = 82.6066
RA_OF_ASC_NODE = 358.8438
ARG_OF_PERICENTER = 291.0947
MEAN_ANOMALY   = 53.7769

EPHEMERIS_TYPE = 0
CLASSIFICATION_TYPE = U
NORAD_CAT_ID   = 21819
ELEMENT_SET_NO = 999
REV_AT_EPOCH   = 48690
BSTAR          = .40811169E-3
MEAN_MOTION_DOT = .2049E-4
MEAN_MOTION_DDOT = 0

CCSDS_OMM_VERS = 2.0
CREATION_DATE  = 
ORIGINATOR     = 

OBJECT_NAME    = SL-8 R/B
OBJECT_ID      = 1992-008B
CENTER_NAME    = EARTH
REF_FRAME      = TEME
TIME_SYSTEM    = UTC
MEAN_ELEMENT_THEORY = SGP/SGP4

EPOCH          = 2025-12-18T22:22:44.975136
MEAN_MOTION    = 13.75960378
ECCENTRICITY   = .00348106
INCLINATION    = 82.9267
RA_OF_ASC_NODE = 327.8399
ARG_OF_PERICENTER = 2.7052
MEAN_ANOMALY   = 55.5405

EPHEMERIS_TYPE = 0
CLASSIFICATION_TYPE = U
NORAD_CAT_ID   = 21876
ELEMENT_SET_NO = 999
REV_AT_EPOCH   = 69831
BSTAR          = .1046701E-3
MEAN_MOTION_DOT = .117E-5
MEAN_MOTION_DDOT = 0

CCSDS_OMM_VERS = 2.0
CREATION_DATE  = 
ORIGINATOR     = 

OBJECT_NAME    = SL-8 R/B
OBJECT_ID      = 1992-020B
CENTER_NAME    = EARTH
REF_FRAME      = TEME
TIME_SYSTEM    = UTC
MEAN_ELEMENT_THEORY = SGP/SGP4

EPOCH          = 2025-12-18T17:38:02.220288
MEAN_MOTION    = 13.75528517
ECCENTRICITY   = .00292968
INCLINATION    = 82.9299
RA_OF_ASC_NODE = 213.8659
ARG_OF_PERICENTER = 161.4732
MEAN_ANOMALY   = 268.5028

EPHEMERIS_TYPE = 0
CLASSIFICATION_TYPE = U
NORAD_CAT_ID   = 21938
ELEMENT_SET_NO = 999
REV_AT_EPOCH   = 69000
BSTAR          = .112423E-3
MEAN_MOTION_DOT = .124E-5
MEAN_MOTION_DDOT = 0

CCSDS_OMM_VERS = 2.0
CREATION_DATE  = 
ORIGINATOR     = 

OBJECT_NAME    = USA 81
OBJECT_ID      = 1992-023A
CENTER_NAME    = EARTH
REF_FRAME      = TEME
TIME_SYSTEM    = UTC
MEAN_ELEMENT_THEORY = SGP/SGP4

EPOCH          = 2025-12-18T21:39:13.936032
MEAN_MOTION    = 14.32329086
ECCENTRICITY   = .0001174
INCLINATION    = 85.0079
RA_OF_ASC_NODE = 178.0219
ARG_OF_PERICENTER = 74.0591
MEAN_ANOMALY   = 286.0731

EPHEMERIS_TYPE = 0
CLASSIFICATION_TYPE = U
NORAD_CAT_ID   = 21949
ELEMENT_SET_NO = 999
REV_AT_EPOCH   = 8322
BSTAR          = .55514528E-4
MEAN_MOTION_DOT = .17E-5
MEAN_MOTION_DDOT = 0

CCSDS_OMM_VERS = 2.0
CREATION_DATE  = 
ORIGINATOR     = 

OBJECT_NAME    = COSMOS 2219
OBJECT_ID      = 1992-076A
CENTER_NAME    = EARTH
REF_FRAME      = TEME
TIME_SYSTEM    = UTC
MEAN_ELEMENT_THEORY = SGP/SGP4

EPOCH          = 2025-12-18T22:47:32.930016
MEAN_MOTION    = 14.14063894
ECCENTRICITY   = .00191885
INCLINATION    = 71.0572
RA_OF_ASC_NODE = 186.8510
ARG_OF_PERICENTER = 318.4515
MEAN_ANOMALY   = 41.5148

EPHEMERIS_TYPE = 0
CLASSIFICATION_TYPE = U
NORAD_CAT_ID   = 22219
ELEMENT_SET_NO = 999
REV_AT_EPOCH   = 70696
BSTAR          = .11107255E-3
MEAN_MOTION_DOT = .164E-5
MEAN_MOTION_DDOT = 0

CCSDS_OMM_VERS = 2.0
CREATION_DATE  = 
ORIGINATOR     = 

OBJECT_NAME    = SL-16 R/B
OBJECT_ID      = 1992-076B
CENTER_NAME    = EARTH
REF_FRAME      = TEME
TIME_SYSTEM    = UTC
MEAN_ELEMENT_THEORY = SGP/SGP4

EPOCH          = 2025-12-18T10:53:12.292800
MEAN_MOTION    = 14.16842364
ECCENTRICITY   = .00144765
INCLINATION    = 71.0005
RA_OF_ASC_NODE = 359.4954
ARG_OF_PERICENTER = 226.2904
MEAN_ANOMALY   = 285.4957

EPHEMERIS_TYPE = 0
CLASSIFICATION_TYPE = U
NORAD_CAT_ID   = 22220
ELEMENT_SET_NO = 999
REV_AT_EPOCH   = 71032
BSTAR          = .14295829E-3
MEAN_MOTION_DOT = .239E-5
MEAN_MOTION_DDOT = 0

CCSDS_OMM_VERS = 2.0
CREATION_DATE  = 
ORIGINATOR     = 

OBJECT_NAME    = COSMOS 2221
OBJECT_ID      = 1992-080A
CENTER_NAME    = EARTH
REF_FRAME      = TEME
TIME_SYSTEM    = UTC
MEAN_ELEMENT_THEORY = SGP/SGP4

EPOCH          = 2025-12-18T23:20:12.303168
MEAN_MOTION    = 14.95783149
ECCENTRICITY   = .00162542
INCLINATION    = 82.5038
RA_OF_ASC_NODE = 356.3594
ARG_OF_PERICENTER = 102.4729
MEAN_ANOMALY   = 257.8313

EPHEMERIS_TYPE = 0
CLASSIFICATION_TYPE = U
NORAD_CAT_ID   = 22236
ELEMENT_SET_NO = 999
REV_AT_EPOCH   = 76872
BSTAR          = .13869863E-3
MEAN_MOTION_DOT = .1576E-4
MEAN_MOTION_DDOT = 0

CCSDS_OMM_VERS = 2.0
CREATION_DATE  = 
ORIGINATOR     = 

OBJECT_NAME    = SL-16 R/B
OBJECT_ID      = 1992-093B
CENTER_NAME    = EARTH
REF_FRAME      = TEME
TIME_SYSTEM    = UTC
MEAN_ELEMENT_THEORY = SGP/SGP4

EPOCH          = 2025-12-18T21:25:09.201504
MEAN_MOTION    = 14.15433832
ECCENTRICITY   = .0002315
INCLINATION    = 71.0203
RA_OF_ASC_NODE = 173.8801
ARG_OF_PERICENTER = 50.0783
MEAN_ANOMALY   = 310.0543

EPHEMERIS_TYPE = 0
CLASSIFICATION_TYPE = U
NORAD_CAT_ID   = 22285
ELEMENT_SET_NO = 999
REV_AT_EPOCH   = 70172
BSTAR          = .13779655E-3
MEAN_MOTION_DOT = .221E-5
MEAN_MOTION_DDOT = 0

CCSDS_OMM_VERS = 2.0
CREATION_DATE  = 
ORIGINATOR     = 

OBJECT_NAME    = COSMOS 2228
OBJECT_ID      = 1992-094A
CENTER_NAME    = EARTH
REF_FRAME      = TEME
TIME_SYSTEM    = UTC
MEAN_ELEMENT_THEORY = SGP/SGP4

EPOCH          = 2025-12-18T21:47:03.810336
MEAN_MOTION    = 14.96756972
ECCENTRICITY   = .00169584
INCLINATION    = 82.5180
RA_OF_ASC_NODE = 314.6324
ARG_OF_PERICENTER = 209.2066
MEAN_ANOMALY   = 150.8210

EPHEMERIS_TYPE = 0
CLASSIFICATION_TYPE = U
NORAD_CAT_ID   = 22286
ELEMENT_SET_NO = 999
REV_AT_EPOCH   = 76397
BSTAR          = .16182286E-3
MEAN_MOTION_DOT = .1881E-4
MEAN_MOTION_DDOT = 0

